COMMENT,ORIGINATOR,NORAD_CAT_ID,OBJECT_NAME,OBJECT_TYPE,CLASSIFICATION_TYPE,INTLDES,EPOCH,EPOCH_MICROSECONDS,MEAN_MOTION,ECCENTRICITY,INCLINATION,RA_OF_ASC_NODE,ARG_OF_PERICENTER,MEAN_ANOMALY,EPHEMERIS_TYPE,ELEMENT_SET_NO,REV_AT_EPOCH,BSTAR,MEAN_MOTION_DOT,MEAN_MOTION_DDOT,FILE,TLE_LINE0,TLE_LINE1,TLE_LINE2,OBJECT_ID,OBJECT_NUMBER,SEMIMAJOR_AXIS,PERIOD,APOGEE,PERIGEE,DECAYED
GENERATED VIA SPACETRACK.ORG API,18 SPCS,44336,ARIANE 5 DEB (SYLDA),DEBRIS,U,19034D,2024-09-13 05:53:22,695648,4.1817926,0.5949823,5.8513,108.5305,64.4429,344.5016,0,999,5392,0.014607,0.00324303,0,4488268,0 ARIANE 5 DEB (SYLDA),1 44336U 19034D   24257.24540157  .00324303  00000-0  14607-1 0  9999,2 44336   5.8513 108.5305 5949823  64.4429 344.5016  4.18179260 53925,2019-034D,44336,16273.97,344.35,19578.559,213.111,0
GENERATED VIA SPACETRACK.ORG API,18 SPCS,44336,ARIANE 5 DEB (SYLDA),DEBRIS,U,19034D,2024-09-13 23:05:27,382272,4.18628683,0.594696,5.8518,107.8759,65.7348,344.06,0,999,5395,0.014161,0.00315438,0,4489375,0 ARIANE 5 DEB (SYLDA),1 44336U 19034D   24257.96212248  .00315438  00000-0  14161-1 0  9999,2 44336   5.8518 107.8759 5946960  65.7348 344.0600  4.18628683 53953,2019-034D,44336,16262.321,343.98,19555.323,213.049,0
GENERATED VIA SPACETRACK.ORG API,18 SPCS,44336,ARIANE 5 DEB (SYLDA),DEBRIS,U,19034D,2024-09-14 10:32:54,664512,4.18907928,0.5945159,5.8525,107.442,66.5935,343.7631,0,999,5397,0.013661,0.00304634,0,4490156,0 ARIANE 5 DEB (SYLDA),1 44336U 19034D   24258.43952158  .00304634  00000-0  13661-1 0  9993,2 44336   5.8525 107.4420 5945159  66.5935 343.7631  4.18907928 53976,2019-034D,44336,16255.093,343.751,19540.869,213.047,0
GENERATED VIA SPACETRACK.ORG API,18 SPCS,44336,ARIANE 5 DEB (SYLDA),DEBRIS,U,19034D,2024-09-14 10:32:54,664512,4.18907928,0.5945159,5.8525,107.442,66.5935,343.7631,0,999,5399,0.013661,0.00304634,0,4490768,0 ARIANE 5 DEB (SYLDA),1 44336U 19034D   24258.43952158  .00304634  00000-0  13661-1 0  9993,2 44336   5.8525 107.4420 5945159  66.5935 343.7631  4.18907928 53998,2019-034D,44336,16255.093,343.751,19540.869,213.047,0
GENERATED VIA SPACETRACK.ORG API,18 SPCS,44336,ARIANE 5 DEB (SYLDA),DEBRIS,U,19034D,2024-09-14 16:16:27,382944,4.19062533,0.5944332,5.8529,107.2281,67.0192,343.6148,0,999,5398,0.013866,0.00311623,0,4491016,0 ARIANE 5 DEB (SYLDA),1 44336U 19034D   24258.67809471  .00311623  00000-0  13866-1 0  9991,2 44336   5.8529 107.2281 5944332  67.0192 343.6148  4.19062533 53984,2019-034D,44336,16251.095,343.624,19533.15,212.769,0
GENERATED VIA SPACETRACK.ORG API,18 SPCS,44336,ARIANE 5 DEB (SYLDA),DEBRIS,U,19034D,2024-09-14 21:59:52,596672,4.19205656,0.5943233,5.8527,107.0079,67.453,343.4619,0,999,5401,0.013472,0.00300701,0,4491570,0 ARIANE 5 DEB (SYLDA),1 44336U 19034D   24258.91658098  .00300701  00000-0  13472-1 0  9993,2 44336   5.8527 107.0079 5943233  67.4530 343.4619  4.19205656 54015,2019-034D,44336,16247.395,343.507,19525.466,213.055,0
GENERATED VIA SPACETRACK.ORG API,18 SPCS,44336,ARIANE 5 DEB (SYLDA),DEBRIS,U,19034D,2024-09-14 21:59:52,596672,4.19205656,0.5943233,5.8527,107.0079,67.453,343.4619,0,999,5399,0.013472,0.00300701,0,4491784,0 ARIANE 5 DEB (SYLDA),1 44336U 19034D   24258.91658098  .00300701  00000-0  13472-1 0  9993,2 44336   5.8527 107.0079 5943233  67.4530 343.4619  4.19205656 53991,2019-034D,44336,16247.395,343.507,19525.466,213.055,0
GENERATED VIA SPACETRACK.ORG API,18 SPCS,44336,ARIANE 5 DEB (SYLDA),DEBRIS,U,19034D,2024-09-15 03:43:10,665120,4.19356155,0.5942449,5.8534,106.7958,67.8778,343.3123,0,999,5400,0.013677,0.00307871,0,4492600,0 ARIANE 5 DEB (SYLDA),1 44336U 19034D   24259.15498455  .00307871  00000-0  13677-1 0  9991,2 44336   5.8534 106.7958 5942449  67.8778 343.3123  4.19356155 54000,2019-034D,44336,16243.508,343.384,19517.995,212.751,0
GENERATED VIA SPACETRACK.ORG API,18 SPCS,44336,ARIANE 5 DEB (SYLDA),DEBRIS,U,19034D,2024-09-15 20:52:21,304992,4.19793695,0.5939521,5.8536,106.1397,69.1717,342.8489,0,999,5405,0.013767,0.00309057,0,4493626,0 ARIANE 5 DEB (SYLDA),1 44336U 19034D   24259.86969103  .00309057  00000-0  13767-1 0  9990,2 44336   5.8536 106.1397 5939521  69.1717 342.8489  4.19793695 54056,2019-034D,44336,16232.219,343.026,19495.245,212.924,0
GENERATED VIA SPACETRACK.ORG API,18 SPCS,44336,ARIANE 5 DEB (SYLDA),DEBRIS,U,19034D,2024-09-16 02:35:10,665312,4.19935879,0.5938761,5.8538,105.9191,69.6055,342.6927,0,999,5404,0.013563,0.00306666,0,4493880,0 ARIANE 5 DEB (SYLDA),1 44336U 19034D   24260.10776233  .00306666  00000-0  13563-1 0  9996,2 44336   5.8538 105.9191 5938761  69.6055 342.6927  4.19935879 54048,2019-034D,44336,16228.555,342.909,19488.171,212.669,0
GENERATED VIA SPACETRACK.ORG API,18 SPCS,44336,ARIANE 5 DEB (SYLDA),DEBRIS,U,19034D,2024-09-16 08:17:51,897120,4.20096941,0.593781,5.8541,105.7054,70.0307,342.537,0,999,5407,0.013523,0.00307089,0,4494952,0 ARIANE 5 DEB (SYLDA),1 44336U 19034D   24260.34573955  .00307089  00000-0  13523-1 0  9994,2 44336   5.8541 105.7054 5937810  70.0307 342.5370  4.20096941 54072,2019-034D,44336,16224.407,342.778,19480.016,212.527,0
GENERATED VIA SPACETRACK.ORG API,18 SPCS,44336,ARIANE 5 DEB (SYLDA),DEBRIS,U,19034D,2024-09-16 14:00:26,123616,4.20246567,0.5936893,5.8543,105.4887,70.4602,342.3789,0,999,5406,0.014248,0.0032441,0,4495216,0 ARIANE 5 DEB (SYLDA),1 44336U 19034D   24260.58363569  .00324410  00000-0  14248-1 0  9990,2 44336   5.8543 105.4887 5936893  70.4602 342.3789  4.20246567 54069,2019-034D,44336,16220.556,342.656,19472.391,212.45,0
GENERATED VIA SPACETRACK.ORG API,18 SPCS,44336,ARIANE 5 DEB (SYLDA),DEBRIS,U,19034D,2024-09-16 14:00:26,123616,4.20246567,0.5936893,5.8543,105.4887,70.4602,342.3789,0,999,5408,0.014248,0.0032441,0,4495681,0 ARIANE 5 DEB (SYLDA),1 44336U 19034D   24260.58363569  .00324410  00000-0  14248-1 0  9990,2 44336   5.8543 105.4887 5936893  70.4602 342.3789  4.20246567 54081,2019-034D,44336,16220.556,342.656,19472.391,212.45,0
GENERATED VIA SPACETRACK.ORG API,18 SPCS,44336,ARIANE 5 DEB (SYLDA),DEBRIS,U,19034D,2024-09-16 19:42:52,661376,4.20406544,0.593588,5.8545,105.271,70.8917,342.2184,0,999,5407,0.014445,0.00329365,0,4495754,0 ARIANE 5 DEB (SYLDA),1 44336U 19034D   24260.82144284  .00329365  00000-0  14445-1 0  9991,2 44336   5.8545 105.2710 5935880  70.8917 342.2184  4.20406544 54074,2019-034D,44336,16216.44,342.526,19464.19,212.421,0
GENERATED VIA SPACETRACK.ORG API,18 SPCS,44336,ARIANE 5 DEB (SYLDA),DEBRIS,U,19034D,2024-09-17 07:07:22,643904,4.20733668,0.5933694,5.8549,104.8331,71.7583,341.8911,0,999,5409,0.016896,0.00384532,0,4496592,0 ARIANE 5 DEB (SYLDA),1 44336U 19034D   24261.29678986  .00384532  00000-0  16896-1 0  9993,2 44336   5.8549 104.8331 5933694  71.7583 341.8911  4.20733668 54097,2019-034D,44336,16208.034,342.259,19447.25,212.547,0
GENERATED VIA SPACETRACK.ORG API,18 SPCS,44336,ARIANE 5 DEB (SYLDA),DEBRIS,U,19034D,2024-09-17 12:49:25,286880,4.20908351,0.593261,5.8552,104.6158,72.1892,341.7261,0,999,5412,0.017671,0.00403167,0,4497321,0 ARIANE 5 DEB (SYLDA),1 44336U 19034D   24261.53432045  .00403167  00000-0  17671-1 0  9992,2 44336   5.8552 104.6158 5932610  72.1892 341.7261  4.20908351 54125,2019-034D,44336,16203.549,342.117,19438.348,212.48,0
GENERATED VIA SPACETRACK.ORG API,18 SPCS,44336,ARIANE 5 DEB (SYLDA),DEBRIS,U,19034D,2024-09-17 18:31:19,215552,4.21066604,0.5931638,5.8553,104.3984,72.6192,341.5608,0,999,5411,0.01548,0.003541,0,4497452,0 ARIANE 5 DEB (SYLDA),1 44336U 19034D   24261.77175018  .00354100  00000-0  15480-1 0  9990,2 44336   5.8553 104.3984 5931638  72.6192 341.5608  4.21066604 54116,2019-034D,44336,16199.489,341.989,19430.304,212.403,0
GENERATED VIA SPACETRACK.ORG API,18 SPCS,44336,ARIANE 5 DEB (SYLDA),DEBRIS,U,19034D,2024-09-17 18:31:19,215552,4.21066604,0.5931638,5.8553,104.3984,72.6192,341.5608,0,999,5413,0.01548,0.003541,0,4497690,0 ARIANE 5 DEB (SYLDA),1 44336U 19034D   24261.77175018  .00354100  00000-0  15480-1 0  9990,2 44336   5.8553 104.3984 5931638  72.6192 341.5608  4.21066604 54138,2019-034D,44336,16199.489,341.989,19430.304,212.403,0
GENERATED VIA SPACETRACK.ORG API,18 SPCS,44336,ARIANE 5 DEB (SYLDA),DEBRIS,U,19034D,2024-09-17 18:31:19,320096,4.21066598,0.5931709,5.8554,104.402,72.6141,341.563,0,999,5411,0.014787,0.00339255,0,4497800,0 ARIANE 5 DEB (SYLDA),1 44336U 19034D   24261.77175139  .00339255  00000-0  14787-1 0  9997,2 44336   5.8554 104.4020 5931709  72.6141 341.5630  4.21066598 54119,2019-034D,44336,16199.489,341.989,19430.419,212.289,0
GENERATED VIA SPACETRACK.ORG API,18 SPCS,44336,ARIANE 5 DEB (SYLDA),DEBRIS,U,19034D,2024-09-18 11:36:12,804192,4.21562115,0.5928421,5.8561,103.7527,73.905,341.0554,0,999,5414,0.015347,0.00351397,0,4498234,0 ARIANE 5 DEB (SYLDA),1 44336U 19034D   24262.48348153  .00351397  00000-0  15347-1 0  9998,2 44336   5.8561 103.7527 5928421  73.9050 341.0554  4.21562115 54140,2019-034D,44336,16186.792,341.587,19404.869,212.445,0
GENERATED VIA SPACETRACK.ORG API,18 SPCS,44336,ARIANE 5 DEB (SYLDA),DEBRIS,U,19034D,2024-09-18 11:36:12,804192,4.21562115,0.5928421,5.8561,103.7527,73.905,341.0554,0,999,5416,0.015347,0.00351397,0,4498437,0 ARIANE 5 DEB (SYLDA),1 44336U 19034D   24262.48348153  .00351397  00000-0  15347-1 0  9998,2 44336   5.8561 103.7527 5928421  73.9050 341.0554  4.21562115 54162,2019-034D,44336,16186.792,341.587,19404.869,212.445,0
GENERATED VIA SPACETRACK.ORG API,18 SPCS,44336,ARIANE 5 DEB (SYLDA),DEBRIS,U,19034D,2024-09-18 22:58:49,510272,4.21861051,0.5926617,5.8565,103.3089,74.7742,340.7078,0,999,5416,0.014281,0.00329057,0,4498774,0 ARIANE 5 DEB (SYLDA),1 44336U 19034D   24262.95751748  .00329057  00000-0  14281-1 0  9992,2 44336   5.8565 103.3089 5926617  74.7742 340.7078  4.21861051 54165,2019-034D,44336,16179.145,341.345,19389.769,212.25,0
